name,type,shortName,longName,atmosphericProfile,stcConfId,spiresConfId,snowCoverDayConfId,mosaicConfId,statisticConfId,publishConfId,geotiffCropXLeft,geotiffCropXRight,geotiffCropYTop,geotiffCropYBottom,used,comment,commentOnBigRegion,id,bigRegionId,versionOfAncillary,historicStartWaterYear,startDateForHistJplIngest,startDateForNrtJplIngest,endDateForJplIngest,startDateForDaacIngest,boxMinLongitude,boxMaxLongitude,boxMinLatitude,boxMaxLatitude,boxLongitude1,boxLongitude2,boxLongitude3,boxLongitude4,boxLatitude1,boxLatitude2,boxLatitude3,boxLatitude4,firstMonthOfWaterYear,,,,,,,,,,,,,,,lon,ul,lat,2:,ur,lon,ur,lat,3:,lr,lon,lr,lat
NB:This line should contain a numeric for Matlab,0,,,,"id of the group of conf parameters to build raw, gap and stc cubes",id of the group of conf parameters to build spires,id of the group of conf params to build snow_cover_days variable,Id of the group of conf params to build daily Mosaics,"Id of the group of conf params to generate statistic files. Used only for big Regions, not used at the tile level.",Id of the group of conf params to generate geotiffs (historic and nrt web),Only for westernUS website projection.,Only for westernUS website projection.,Only for westernUS website projection.,Only for westernUS website projection.,,comment line,Big region the tile is historically associated with. For info only,"Id indicated in toolsRegion.sh. NB: for region of type bigRegion, this id differs from the id of the group0 landsubdivision indicated in configuration_of_landsubdivisions.csv. WARNING: Column used in bash script, keep at 18 position.","WARNING: Column used in bash script, keep at 19 position.","Version of ancillary files, v3.1, v3.2, or test","Historic: understood as all historics, including the nrt jpl files from the last years",,,,," Longitude/Latitude of each corner of the modis tile, extracted from https://modis-land.gsfc.nasa.gov/MODLAND_grid.html Table of tile bounding coordinates",,,,"Longitude/Latitude of each corner of the modis tile, collected here G-ring https://modis-land.gsfc.nasa.gov/MODLAND_grid.html",,,,,,,,,,,,,,,,,,,,,,,,,,,,,,,,,,,
h07v03,modisTile,,,mlw,5,6,3,1,4,2,0,0,0,0,1,default conf,USAlaska,255,1,v3.2,2001,2000-09-01,2018-12-30,2023-09-30,,-180,-155.5594,50,56.2583,140,160,-155.572382686041,-171.129620954645,60,60,50,50,10,,,,,,,,,,,,,,,,,,,,,,,,,,,
h08v03,modisTile,,,mlw,5,6,3,1,4,2,0,0,0,0,1,default conf,USAlaska,291,1,v3.2,2001,2000-09-01,2018-12-30,2023-09-30,,-180,-140.0022,50,60,160,-180,-140.015144417437,-155.572382686041,60,60,50,50,10,,,,,,,,,,,,,,,,,,,,,,,,,,,
h08v04,modisTile,,,mlw,5,6,3,1,4,2,0,0,0,0,1,default conf,westernUS,292,5,v3.1,2001,2000-09-01,2018-12-30,2023-09-30,2023-10-01,-155.5724,-117.4758,40,50,-155.572382686041,-140.015144417437,-117.486656039905,-130.540728933228,50,50,40,40,10,,,,,,,,,,,,,,,,,,,,,,,,,,,
h08v05,modisTile,,,mlw,5,6,3,1,4,2,0,0,0,0,1,default conf,westernUS,293,5,v3.1,2001,2000-09-01,2018-12-30,2023-09-30,2023-10-01,-130.5407,-103.9134,30,40,-130.540728933228,-117.486656039905,-103.923048454133,-115.470053837925,40,40,30,30,10,,,,,,,,,,,,,,,,,,,,,,,,,,,
h09v02,modisTile,,,mlw,5,6,3,1,4,2,0,0,0,0,1,default conf,USAlaska,326,1,v3.2,2001,2000-09-01,2018-12-30,2023-09-30,,-180,-159.9833,60,63.6167,96.857603985322,126.095647986953,-160,-180,70,70,60,60,10,,,,,,,,,,,,,,,,,,,,,,,,,,,
h09v03,modisTile,,,mlw,5,6,3,1,4,2,0,0,0,0,1,default conf,USAlaska,327,1,v3.2,2001,2000-09-01,2018-12-30,2023-09-30,,-180,-124.4449,50,60,-180,-160,-124.457906148833,-140.015144417437,60,60,50,50,10,,,,,,,,,,,,,,,,,,,,,,,,,,,
h09v04,modisTile,,,mlw,5,6,3,1,4,2,0,0,0,0,1,default conf,westernUS,328,5,v3.1,2001,2000-09-01,2018-12-30,2023-09-30,2023-10-01,-140.0151,-104.4217,40,50,-140.015144417437,-124.457906148833,-104.432583146582,-117.486656039905,50,50,40,40,10,,,,,,,,,,,,,,,,,,,,,,,,,,,
h09v05,modisTile,,,mlw,5,6,3,1,4,2,0,0,0,0,1,default conf,westernUS,329,5,v3.1,2001,2000-09-01,2018-12-30,2023-09-30,2023-10-01,-117.4867,-92.3664,30,40,-117.486656039905,-104.432583146582,-92.3760430703401,-103.923048454133,40,40,30,30,10,,,,,,,,,,,,,,,,,,,,,,,,,,,
h10v02,modisTile,,,mlw,5,6,3,1,4,2,0,0,0,0,1,default conf,USAlaska,362,1,v3.2,2001,2000-09-01,2018-12-30,2023-09-30,,-180,-139.9833,60,67.1167,126.095647986953,155.333691988584,-140,-160,70,70,60,60,10,,,,,,,,,,,,,,,,,,,,,,,,,,,
h10v03,modisTile,,,mlw,5,6,3,1,4,2,0,0,0,0,1,default conf,USAlaska,363,1,v3.2,2001,2000-09-01,2018-12-30,2023-09-30,,-160,-108.8877,50,60,-160,-140,-108.900667880229,-124.457906148833,60,60,50,50,10,,,,,,,,,,,,,,,,,,,,,,,,,,,
h10v04,modisTile,,,mlw,5,6,3,1,4,2,0,0,0,0,1,default conf,westernUS,364,5,v3.1,2001,2000-09-01,2018-12-30,2023-09-30,2023-10-01,-124.4579,-91.3676,40,50,-124.457906148833,-108.900667880229,-91.3785102532595,-104.432583146582,50,50,40,40,10,,,,,,,,,,,,,,,,,,,,,,,,,,,
h10v09,modisTile,,,mlw,5,6,3,1,4,2,0,0,0,0,1,default conf,AMAndes,369,4,v3.2,2001,2000-09-01,2018-12-30,2023-09-30,,-81.2341,-69.9917,-10,0,-80,-70,-71.0798628320022,-81.2341289508596,0,0,-10,-10,4,,,,,,,,,,,,,,,,,,,,,,,,,,,
h10v10,modisTile,,,mlw,5,6,3,1,4,2,0,0,0,0,1,default conf,AMAndes,370,4,v3.2,2001,,2017-04-01,2023-09-30,,-85.1342,-71.0714,-20,-10,-81.2341289508596,-71.0798628320022,-74.4924440733139,-85.134221798073,-10,-10,-20,-20,4,,,,,,,,,,,,,,,,,,,,,,,,,,,
h11v02,modisTile,,,mlw,5,6,3,1,4,2,0,0,0,0,1,default conf,USAlaska,398,1,v3.2,2001,2000-09-01,2018-12-30,2023-09-30,,-180,-119.9833,60,70,155.333691988584,-175.428264009785,-120,-140,70,70,60,60,10,,,,,,,,,,,,,,,,,,,,,,,,,,,
h11v03,modisTile,,,mlw,5,6,3,1,4,2,0,0,0,0,1,default conf,USAlaska,399,1,v3.2,2001,2000-09-01,2018-12-30,2023-09-30,,-140,-93.3305,50,60,-140,-120,-93.3434296116247,-108.900667880229,60,60,50,50,10,,,,,,,,,,,,,,,,,,,,,,,,,,,
h11v10,modisTile,,,mlw,5,6,3,1,4,2,0,0,0,0,1,default conf,AMAndes,406,4,v3.2,2001,,2017-04-01,2023-09-30,,-74.4924,-60.9171,-20,-10,-71.0798628320022,-60.9255967131447,-63.8506663485547,-74.4924440733139,-10,-10,-20,-20,4,,,,,,,,,,,,,,,,,,,,,,,,,,,
h11v11,modisTile,,,mlw,5,6,3,1,4,2,0,0,0,0,1,default conf,AMAndes,407,4,v3.2,2001,,2017-04-01,2023-09-30,,-80.829,-63.8418,-30,-20,-74.4924440733139,-63.8506663485547,-69.2820323027551,-80.8290376865476,-20,-20,-30,-30,4,,,,,,,,,,,,,,,,,,,,,,,,,,,
h11v12,modisTile,,,mlw,5,6,3,1,4,2,0,0,0,0,1,default conf,AMAndes,408,4,v3.2,2001,,2017-04-01,2023-09-30,,-91.3785,-69.2724,-40,-30,-80.8290376865476,-69.2820323027551,-78.3244373599367,-91.3785102532595,-30,-30,-40,-40,4,,,,,,,,,,,,,,,,,,,,,,,,,,,
h12v01,modisTile,,,mlw,5,6,3,1,4,2,0,0,0,0,1,default conf,USAlaska,433,1,v3.2,2001,2000-09-01,2018-12-30,2023-09-30,,-180,-146.1659,70,73.875,14.4737710113817,72.0614758428181,-146.190220008154,-175.428264009785,80,80,70,70,10,,,,,,,,,,,,,,,,,,,,,,,,,,,
h12v02,modisTile,,,mlw,5,6,3,1,4,2,0,0,0,0,1,default conf,USAlaska,434,1,v3.2,2001,2000-09-01,2018-12-30,2023-09-30,,-175.4283,-99.9833,60,70,-175.428264009785,-146.190220008154,-100,-120,70,70,60,60,10,,,,,,,,,,,,,,,,,,,,,,,,,,,
h12v12,modisTile,,,mlw,5,6,3,1,4,2,0,0,0,0,1,default conf,AMAndes,444,4,v3.2,2001,,2017-04-01,2023-09-30,,-78.3244,-57.7254,-40,-30,-69.2820323027551,-57.7350269189626,-65.2703644666139,-78.3244373599367,-30,-30,-40,-40,4,,,,,,,,,,,,,,,,,,,,,,,,,,,
h12v13,modisTile,,,mlw,5,6,3,1,4,2,0,0,0,0,1,default conf,AMAndes,445,4,v3.2,2001,,2017-04-01,2023-09-30,,-93.3434,-65.2595,-50,-40,-78.3244373599367,-65.2703644666139,-77.7861913430206,-93.3434296116248,-40,-40,-50,-50,4,,,,,,,,,,,,,,,,,,,,,,,,,,,
h13v01,modisTile,,,mlw,5,6,3,1,4,2,0,0,0,0,1,default conf,USAlaska,469,1,v3.2,2001,2000-09-01,2018-12-30,2023-09-30,,-180,-116.9278,70,77.1667,72.0614758428181,129.649180674254,-116.952176006524,-146.190220008154,80,80,70,70,10,,,,,,,,,,,,,,,,,,,,,,,,,,,
h13v02,modisTile,,,mlw,5,6,3,1,4,2,0,0,0,0,1,default conf,USAlaska,470,1,v3.2,2001,2000-09-01,2018-12-30,2023-09-30,,-146.1902,-79.9833,60,70,-146.190220008154,-116.952176006524,-80,-100,70,70,60,60,10,,,,,,,,,,,,,,,,,,,,,,,,,,,
h13v13,modisTile,,,mlw,5,6,3,1,4,2,0,0,0,0,1,default conf,AMAndes,481,4,v3.2,2018,,2017-04-01,2023-09-30,,-77.7862,-52.2054,-50,-40,-65.2703644666139,-52.2162915732912,-62.2289530744165,-77.7861913430206,-40,-40,-50,-50,4,,,,,,,,,,,,,,,,,,,,,,,,,,,
h13v14,modisTile,,,mlw,5,6,3,1,4,2,0,0,0,0,1,default conf,AMAndes,482,4,v3.2,2018,,2017-04-01,2023-09-30,,-100,-62.216,-60,-50,-77.7861913430206,-62.2289530744165,-80,-100,-50,-50,-60,-60,4,,,,,,,,,,,,,,,,,,,,,,,,,,,
h18v04,modisTile,,,mlw,5,6,3,1,4,2,0,0,0,0,1,default conf,EURAlps,652,3,v3.2,2001,,,,,0,15.5702,40,50,0,15.5572382686041,13.0540728933228,0,50,50,40,40,10,,,,,,,,,,,,,,,,,,,,,,,,,,,
h19v04,modisTile,,,mlw,5,6,3,1,4,2,0,0,0,0,1,default conf,EURAlps,688,3,v3.2,2001,,,,,13.0541,31.1274,40,50,15.5572382686041,31.1144765372083,26.1081457866456,13.0540728933228,50,50,40,40,10,,,,,,,,,,,,,,,,,,,,,,,,,,,
h22v04,modisTile,,,mlw,5,6,3,1,4,2,0,0,0,0,1,default conf,ASHimalaya,796,2,v3.2,2001,2000-09-01,2018-12-30,2023-09-30,,52.2163,77.7992,40,50,62.2289530744165,77.7861913430206,65.2703644666139,52.2162915732912,50,50,40,40,10,,,,,,,,,,,,,,,,,,,,,,,,,,,
h22v05,modisTile,,,mlw,5,6,3,1,4,2,0,0,0,0,1,default conf,ASHimalaya,797,2,v3.2,2001,2000-09-01,2018-12-30,2023-09-30,,46.188,65.2812,30,40,52.2162915732912,65.2703644666139,57.7350269189626,46.1880215351701,40,40,30,30,10,,,,,,,,,,,,,,,,,,,,,,,,,,,
h23v04,modisTile,,,mlw,5,6,3,1,4,2,0,0,0,0,1,default conf,ASHimalaya,832,2,v3.2,2001,2000-09-01,2018-12-30,2023-09-30,,65.2704,93.3564,40,50,77.7861913430206,93.3434296116248,78.3244373599367,65.2703644666139,50,50,40,40,10,,,,,,,,,,,,,,,,,,,,,,,,,,,
h23v05,modisTile,,,mlw,5,6,3,1,4,2,0,0,0,0,1,default conf,ASHimalaya,833,2,v3.2,2001,2000-09-01,2018-12-30,2023-09-30,,57.735,78.3353,30,40,65.2703644666139,78.3244373599367,69.2820323027551,57.7350269189626,40,40,30,30,10,,,,,,,,,,,,,,,,,,,,,,,,,,,
h23v06,modisTile,,,mlw,5,6,3,1,4,2,0,0,0,0,1,default conf,ASHimalaya,834,2,v3.2,2001,2000-09-01,2018-12-30,2023-09-30,,53.2089,69.2917,20,30,57.7350269189626,69.2820323027551,63.8506663485547,53.2088886237956,30,30,20,20,10,,,,,,,,,,,,,,,,,,,,,,,,,,,
h24v04,modisTile,,,mlw,5,6,3,1,4,2,0,0,0,0,1,default conf,ASHimalaya,868,2,v3.2,2001,2000-09-01,2018-12-30,2023-09-30,,78.3244,108.9136,40,50,93.3434296116248,108.900667880229,91.3785102532595,78.3244373599367,50,50,40,40,10,,,,,,,,,,,,,,,,,,,,,,,,,,,
h24v05,modisTile,,,mlw,5,6,3,1,4,2,0,0,0,0,1,default conf,ASHimalaya,869,2,v3.2,2001,2000-09-01,2018-12-30,2023-09-30,,69.282,91.3894,30,40,78.3244373599367,91.3785102532595,80.8290376865476,69.2820323027551,40,40,30,30,10,,,,,,,,,,,,,,,,,,,,,,,,,,,
h24v06,modisTile,,,mlw,5,6,3,1,4,2,0,0,0,0,1,default conf,ASHimalaya,870,2,v3.2,2001,2000-09-01,2018-12-30,2023-09-30,,63.8507,80.8387,20,30,69.2820323027551,80.8290376865476,74.4924440733138,63.8506663485547,30,30,20,20,10,,,,,,,,,,,,,,,,,,,,,,,,,,,
h25v05,modisTile,,,mlw,5,6,3,1,4,2,0,0,0,0,1,default conf,ASHimalaya,905,2,v3.2,2001,2000-09-01,2018-12-30,2023-09-30,,80.829,104.4435,30,40,91.3785102532595,104.432583146582,92.3760430703401,80.8290376865476,40,40,30,30,10,,,,,,,,,,,,,,,,,,,,,,,,,,,
h25v06,modisTile,,,mlw,5,6,3,1,4,2,0,0,0,0,1,default conf,ASHimalaya,906,2,v3.2,2001,2000-09-01,2018-12-30,2023-09-30,,74.4924,92.3857,20,30,80.8290376865476,92.3760430703401,85.134221798073,74.4924440733138,30,30,20,20,10,,,,,,,,,,,,,,,,,,,,,,,,,,,
h26v05,modisTile,,,mlw,5,6,3,1,4,2,0,0,0,0,1,default conf,ASHimalaya,941,2,v3.2,2001,2000-09-01,2018-12-30,2023-09-30,,92.376,117.4975,30,40,104.432583146582,117.486656039905,103.923048454133,92.3760430703401,40,40,30,30,10,,,,,,,,,,,,,,,,,,,,,,,,,,,
h26v06,modisTile,,,mlw,5,6,3,1,4,2,0,0,0,0,1,default conf,ASHimalaya,942,2,v3.2,2001,2000-09-01,2018-12-30,2023-09-30,,85.1342,103.9327,20,30,92.3760430703401,103.923048454133,95.7759995228321,85.134221798073,30,30,20,20,10,,,,,,,,,,,,,,,,,,,,,,,,,,,
h35v17,modisTile,,,mlw,5,6,3,1,4,2,0,0,0,0,0,default conf,Unused,1277,,v3.9,2001,2000-09-01,2018-12-30,2023-09-30,,,,,,,,,,,,,,4,,,,,,,,,,,,,,,,,,,,,,,,,,,
AMAndes,bigRegion,,,mlw,5,6,3,1,4,2,0,0,0,0,1,default conf,,4,,v3.2,2018,,2017-04-01,2023-09-30,,,,,,-80,-40,-80,-160,0,0,-60,-60,4,,,,,,,,,,,,,,,,,,,,,,,,,,,
ASHimalaya,bigRegion,,,mlw,5,6,3,1,4,2,0,0,0,0,1,default conf,,2,,v3.2,2001,2000-09-01,2018-12-30,2023-09-30,,,,,,62.2289530744165,140.015144417437,95.7759995228321,42.5671108990365,50,50,20,20,10,,,,,,,,,,,,,,,,,,,,,,,,,,,
EURAlps,bigRegion,,,mlw,5,6,3,1,4,2,0,0,0,0,1,default conf,,3,,v3.2,2001,2000-09-01,2018-12-30,2023-09-30,,,,,,0,31.1144765372083,26.1081457866456,0,50,50,40,40,10,,,,,,,,,,,,,,,,,,,,,,,,,,,
USAlaska,bigRegion,,,mlw,5,6,3,1,4,2,0,0,0,0,1,default conf,,1,,v3.2,2001,2000-09-01,2018-12-30,2023-09-30,,,,,,144.122951685636,129.649180674254,-62.2289530744165,-155.572382686041,80,80,50,50,10,,,,,,,,,,,,,,,,,,,,,,,,,,,
westernUS,bigRegion,,,mlw,5,6,3,1,4,2,13700,5056,0,-1,1,,,5,,v3.1,2001,2000-09-01,2018-12-30,2023-09-30,2023-10-01,,,,,-155.572382686041,-108.900667880229,-80.8290376865476,-115.470053837925,50,50,30,30,10,,,,,,,,,,,,,,,,,,,,,,,,,,,
mockRegion,bigRegion,,,mlw,5,6,103,101,4,102,0,0,1,0,1,default conf,unit test mock region,,,test,2001,2000-09-01,2018-12-30,2023-09-30,2023-10-01,,,,,,,,,,,,,10,,,,,,,,,,,,,,,,,,,,,,,,,,,
mockTile1,modisTile,,,mlw,5,6,103,101,4,102,0,0,1,0,1,default conf,unit test mock region,,,test,2001,2000-09-01,2018-12-30,2023-09-30,2023-10-01,,,,,,,,,,,,,10,,,,,,,,,,,,,,,,,,,,,,,,,,,
mockTile2,modisTile,,,mlw,5,6,103,101,4,102,0,0,1,0,1,default conf,unit test mock region,,,test,2001,2000-09-01,2018-12-30,2023-09-30,2023-10-01,,,,,,,,,,,,,10,,,,,,,,,,,,,,,,,,,,,,,,,,,
h08v04test,modisTile,,,mlw,5,6,3,1,4,2,0,0,0,0,1,default conf,westernUS,292,,test,2001,2000-09-01,2018-12-30,2023-09-30,2023-10-01,,,,,,,,,,,,,10,,,,,,,,,,,,,,,,,,,,,,,,,,,
westernUStest,bigRegion,,,mlw,5,6,3,1,4,2,13700,5056,0,-1,1,,,0,,test,2001,2000-09-01,2018-12-30,2023-09-30,2023-10-01,,,,,,,,,,,,,10,,,,,,,,,,,,,,,,,,,,,,,,,,,
,,,,,,,,,,,,,,,,,,,,,,,,,,,,,,,,,,,,,,10,,,,,,,,,,,,,,,,,,,,,,,,,,,
h00v08,modisTile,,,mlw,,,,,,,,,,,0,,,8,,v3.9,,,,,,-180,-169.9917,0,10,,,,,,,,,10,,,,,,,,,,,,,,,,,,,,,,,,,,,
h00v09,modisTile,,,mlw,,,,,,,,,,,0,,,9,,v3.9,,,,,,-180,-169.9917,-10,0,,,,,,,,,4,,,,,,,,,,,,,,,,,,,,,,,,,,,
h00v10,modisTile,,,mlw,,,,,,,,,,,0,,,10,,v3.9,,,,,,-180,-172.6141,-19.1917,-10,,,,,,,,,4,,,,,,,,,,,,,,,,,,,,,,,,,,,
h01v07,modisTile,,,mlw,,,,,,,,,,,0,,,43,,v3.9,,,,,,-180,-162.4598,10,20,,,,,,,,,10,,,,,,,,,,,,,,,,,,,,,,,,,,,
h01v08,modisTile,,,mlw,,,,,,,,,,,0,,,44,,v3.9,,,,,,-172.6225,-159.9917,0,10,,,,,,,,,10,,,,,,,,,,,,,,,,,,,,,,,,,,,
h01v09,modisTile,,,mlw,,,,,,,,,,,0,,,45,,v3.9,,,,,,-172.6225,-159.9917,-10,0,,,,,,,,,4,,,,,,,,,,,,,,,,,,,,,,,,,,,
h01v10,modisTile,,,mlw,,,,,,,,,,,0,,,46,,v3.9,,,,,,-180,-162.4598,-20,-10,,,,,,,,,4,,,,,,,,,,,,,,,,,,,,,,,,,,,
h01v11,modisTile,,,mlw,,,,,,,,,,,0,,,47,,v3.9,,,,,,-180,-170.2596,-27.2667,-20,,,,,,,,,4,,,,,,,,,,,,,,,,,,,,,,,,,,,
h02v06,modisTile,,,mlw,,,,,,,,,,,0,,,78,,v3.9,,,,,,-180,-159.6178,20,30,,,,,,,,,10,,,,,,,,,,,,,,,,,,,,,,,,,,,
h02v08,modisTile,,,mlw,,,,,,,,,,,0,,,80,,v3.9,,,,,,-162.4683,-149.9917,0,10,,,,,,,,,10,,,,,,,,,,,,,,,,,,,,,,,,,,,
h02v09,modisTile,,,mlw,,,,,,,,,,,0,,,81,,v3.9,,,,,,-162.4683,-149.9917,-10,0,,,,,,,,,4,,,,,,,,,,,,,,,,,,,,,,,,,,,
h02v10,modisTile,,,mlw,,,,,,,,,,,0,,,82,,v3.9,,,,,,-170.2684,-152.3055,-20,-10,,,,,,,,,4,,,,,,,,,,,,,,,,,,,,,,,,,,,
h02v11,modisTile,,,mlw,,,,,,,,,,,0,,,83,,v3.9,,,,,,-180,-159.6178,-30,-20,,,,,,,,,4,,,,,,,,,,,,,,,,,,,,,,,,,,,
h03v06,modisTile,,,mlw,,,,,,,,,,,0,,,114,,v3.9,,,,,,-173.2051,-148.976,20,30,,,,,,,,,10,,,,,,,,,,,,,,,,,,,,,,,,,,,
h03v07,modisTile,,,mlw,,,,,,,,,,,0,,,115,,v3.9,,,,,,-159.6267,-142.1513,10,20,,,,,,,,,10,,,,,,,,,,,,,,,,,,,,,,,,,,,
h03v09,modisTile,,,mlw,,,,,,,,,,,0,,,117,,v3.9,,,,,,-152.314,-139.9917,-10,0,,,,,,,,,4,,,,,,,,,,,,,,,,,,,,,,,,,,,
h03v10,modisTile,,,mlw,,,,,,,,,,,0,,,118,,v3.9,,,,,,-159.6267,-142.1513,-20,-10,,,,,,,,,4,,,,,,,,,,,,,,,,,,,,,,,,,,,
h03v11,modisTile,,,mlw,,,,,,,,,,,0,,,119,,v3.9,,,,,,-173.2051,-148.976,-30,-20,,,,,,,,,4,,,,,,,,,,,,,,,,,,,,,,,,,,,
h04v09,modisTile,,,mlw,,,,,,,,,,,0,,,153,,v3.9,,,,,,-142.1597,-129.9917,-10,0,,,,,,,,,4,,,,,,,,,,,,,,,,,,,,,,,,,,,
h04v10,modisTile,,,mlw,,,,,,,,,,,0,,,154,,v3.9,,,,,,-148.9849,-131.997,-20,-10,,,,,,,,,4,,,,,,,,,,,,,,,,,,,,,,,,,,,
h04v11,modisTile,,,mlw,,,,,,,,,,,0,,,155,,v3.9,,,,,,-161.6581,-138.3342,-30,-20,,,,,,,,,4,,,,,,,,,,,,,,,,,,,,,,,,,,,
h05v10,modisTile,,,mlw,,,,,,,,,,,0,,,190,,v3.9,,,,,,-138.3431,-121.8427,-20,-10,,,,,,,,,4,,,,,,,,,,,,,,,,,,,,,,,,,,,
h05v11,modisTile,,,mlw,,,,,,,,,,,0,,,191,,v3.9,,,,,,-150.1111,-127.6925,-30,-20,,,,,,,,,4,,,,,,,,,,,,,,,,,,,,,,,,,,,
h05v13,modisTile,,,mlw,,,,,,,,,,,0,,,193,,v3.9,,,,,,-180,-156.638,-48.1917,-40,,,,,,,,,4,,,,,,,,,,,,,,,,,,,,,,,,,,,
h06v03,modisTile,,,mlw,,,,,,,,,,,0,,,219,,v3.9,,,,,,-180,-171.1167,50,52.3333,,,,,,,,,10,,,,,,,,,,,,,,,,,,,,,,,,,,,
h06v11,modisTile,,,mlw,,,,,,,,,,,0,,,227,,v3.9,,,,,,-138.5641,-117.0507,-30,-20,,,,,,,,,4,,,,,,,,,,,,,,,,,,,,,,,,,,,
h07v05,modisTile,,,mlw,,,,,,,,,,,0,,,257,,v3.9,,,,,,-143.5948,-115.4604,30,40,,,,,,,,,10,,,,,,,,,,,,,,,,,,,,,,,,,,,
h07v06,modisTile,,,mlw,,,,,,,,,,,0,,,258,,v3.9,,,,,,-127.0171,-106.4089,20,30,,,,,,,,,10,,,,,,,,,,,,,,,,,,,,,,,,,,,
h07v07,modisTile,,,mlw,,,,,,,,,,,0,,,259,,v3.9,,,,,,-117.0596,-101.5342,10,20,,,,,,,,,10,,,,,,,,,,,,,,,,,,,,,,,,,,,
h08v06,modisTile,,,mlw,,,,,,,,,,,0,,,294,,v3.9,,,,,,-115.4701,-95.7671,20,30,,,,,,,,,10,,,,,,,,,,,,,,,,,,,,,,,,,,,
h08v07,modisTile,,,mlw,,,,,,,,,,,0,,,295,,v3.9,,,,,,-106.4178,-91.3799,10,20,,,,,,,,,10,,,,,,,,,,,,,,,,,,,,,,,,,,,
h08v08,modisTile,,,mlw,,,,,,,,,,,0,,,296,,v3.9,,,,,,-101.5427,-89.9917,0,10,,,,,,,,,10,,,,,,,,,,,,,,,,,,,,,,,,,,,
h08v09,modisTile,,,mlw,,,,,,,,,,,0,,,297,,v3.9,,,,,,-101.5427,-89.9917,-10,0,,,,,,,,,4,,,,,,,,,,,,,,,,,,,,,,,,,,,
h08v11,modisTile,,,mlw,,,,,,,,,,,0,,,299,,v3.9,,,,,,-115.4701,-95.7671,-30,-20,,,,,,,,,4,,,,,,,,,,,,,,,,,,,,,,,,,,,
h09v06,modisTile,,,mlw,,,,,,,,,,,0,,,330,,v3.9,,,,,,-103.923,-85.1254,20,30,,,,,,,,,10,,,,,,,,,,,,,,,,,,,,,,,,,,,
h09v07,modisTile,,,mlw,,,,,,,,,,,0,,,331,,v3.9,,,,,,-95.776,-81.2257,10,20,,,,,,,,,10,,,,,,,,,,,,,,,,,,,,,,,,,,,
h09v08,modisTile,,,mlw,,,,,,,,,,,0,,,332,,v3.9,,,,,,-91.3884,-79.9917,0,10,,,,,,,,,10,,,,,,,,,,,,,,,,,,,,,,,,,,,
h09v09,modisTile,,,mlw,,,,,,,,,,,0,,,333,,v3.9,,,,,,-91.3884,-79.9917,-10,0,,,,,,,,,4,,,,,,,,,,,,,,,,,,,,,,,,,,,
h10v05,modisTile,,,mlw,,,,,,,,,,,0,,,365,,v3.2,,,,,,-104.4326,-80.8194,30,40,,,,,,,,,10,,,,,,,,,,,,,,,,,,,,,,,,,,,
h10v06,modisTile,,,mlw,,,,,,,,,,,0,,,366,,v3.9,,,,,,-92.376,-74.4836,20,30,,,,,,,,,10,,,,,,,,,,,,,,,,,,,,,,,,,,,
h10v07,modisTile,,,mlw,,,,,,,,,,,0,,,367,,v3.9,,,,,,-85.1342,-71.0714,10,20,,,,,,,,,10,,,,,,,,,,,,,,,,,,,,,,,,,,,
h10v08,modisTile,,,mlw,,,,,,,,,,,0,,,368,,v3.9,,,,,,-81.2341,-69.9917,0,10,,,,,,,,,10,,,,,,,,,,,,,,,,,,,,,,,,,,,
h10v11,modisTile,,,mlw,,,,,,,,,,,0,,,371,,v3.9,,,,,,-92.376,-74.4836,-30,-20,,,,,,,,,4,,,,,,,,,,,,,,,,,,,,,,,,,,,
h11v01,modisTile,,,mlw,,,,,,,,,,,0,,,397,,v3.9,,,,,,-180,-175.4039,70,70.5333,,,,,,,,,10,,,,,,,,,,,,,,,,,,,,,,,,,,,
h11v04,modisTile,,,mlw,,,,,,,,,,,0,,,400,,v3.2,,,,,,-108.9007,-78.3136,40,50,,,,,,,,,10,,,,,,,,,,,,,,,,,,,,,,,,,,,
h11v05,modisTile,,,mlw,,,,,,,,,,,0,,,401,,v3.9,,,,,,-91.3785,-69.2724,30,40,,,,,,,,,10,,,,,,,,,,,,,,,,,,,,,,,,,,,
h11v06,modisTile,,,mlw,,,,,,,,,,,0,,,402,,v3.9,,,,,,-80.829,-63.8418,20,30,,,,,,,,,10,,,,,,,,,,,,,,,,,,,,,,,,,,,
h11v07,modisTile,,,mlw,,,,,,,,,,,0,,,403,,v3.9,,,,,,-74.4924,-60.9171,10,20,,,,,,,,,10,,,,,,,,,,,,,,,,,,,,,,,,,,,
h11v08,modisTile,,,mlw,,,,,,,,,,,0,,,404,,v3.9,,,,,,-71.0799,-59.9917,0,10,,,,,,,,,10,,,,,,,,,,,,,,,,,,,,,,,,,,,
h11v09,modisTile,,,mlw,,,,,,,,,,,0,,,405,,v3.9,,,,,,-71.0799,-59.9917,-10,0,,,,,,,,,4,,,,,,,,,,,,,,,,,,,,,,,,,,,
h12v03,modisTile,,,mlw,,,,,,,,,,,0,,,435,,v3.9,,,,,,-120,-77.7732,50,60,,,,,,,,,10,,,,,,,,,,,,,,,,,,,,,,,,,,,
h12v04,modisTile,,,mlw,,,,,,,,,,,0,,,436,,v3.9,,,,,,-93.3434,-65.2595,40,50,,,,,,,,,10,,,,,,,,,,,,,,,,,,,,,,,,,,,
h12v05,modisTile,,,mlw,,,,,,,,,,,0,,,437,,v3.9,,,,,,-78.3244,-57.7254,30,40,,,,,,,,,10,,,,,,,,,,,,,,,,,,,,,,,,,,,
h12v07,modisTile,,,mlw,,,,,,,,,,,0,,,439,,v3.9,,,,,,-63.8507,-50.7629,10,20,,,,,,,,,10,,,,,,,,,,,,,,,,,,,,,,,,,,,
h12v08,modisTile,,,mlw,,,,,,,,,,,0,,,440,,v3.9,,,,,,-60.9256,-49.9917,0,10,,,,,,,,,10,,,,,,,,,,,,,,,,,,,,,,,,,,,
h12v09,modisTile,,,mlw,,,,,,,,,,,0,,,441,,v3.9,,,,,,-60.9256,-49.9917,-10,0,,,,,,,,,4,,,,,,,,,,,,,,,,,,,,,,,,,,,
h12v10,modisTile,,,mlw,,,,,,,,,,,0,,,442,,v3.9,,,,,,-63.8507,-50.7629,-20,-10,,,,,,,,,4,,,,,,,,,,,,,,,,,,,,,,,,,,,
h12v11,modisTile,,,mlw,,,,,,,,,,,0,,,443,,v3.9,,,,,,-69.282,-53.2,-30,-20,,,,,,,,,4,,,,,,,,,,,,,,,,,,,,,,,,,,,
h13v03,modisTile,,,mlw,,,,,,,,,,,0,,,471,,v3.9,,,,,,-100,-62.216,50,60,,,,,,,,,10,,,,,,,,,,,,,,,,,,,,,,,,,,,
h13v04,modisTile,,,mlw,,,,,,,,,,,0,,,472,,v3.9,,,,,,-77.7862,-52.2054,40,50,,,,,,,,,10,,,,,,,,,,,,,,,,,,,,,,,,,,,
h13v08,modisTile,,,mlw,,,,,,,,,,,0,,,476,,v3.9,,,,,,-50.7713,-39.9917,0,10,,,,,,,,,10,,,,,,,,,,,,,,,,,,,,,,,,,,,
h13v09,modisTile,,,mlw,,,,,,,,,,,0,,,477,,v3.9,,,,,,-50.7713,-39.9917,-10,0,,,,,,,,,4,,,,,,,,,,,,,,,,,,,,,,,,,,,
h13v10,modisTile,,,mlw,,,,,,,,,,,0,,,478,,v3.9,,,,,,-53.2089,-40.6086,-20,-10,,,,,,,,,4,,,,,,,,,,,,,,,,,,,,,,,,,,,
h13v11,modisTile,,,mlw,,,,,,,,,,,0,,,479,,v3.9,,,,,,-57.735,-42.5582,-30,-20,,,,,,,,,4,,,,,,,,,,,,,,,,,,,,,,,,,,,
h13v12,modisTile,,,mlw,,,,,,,,,,,0,,,480,,v3.9,,,,,,-65.2704,-46.1784,-40,-30,,,,,,,,,4,,,,,,,,,,,,,,,,,,,,,,,,,,,
h14v01,modisTile,,,mlw,,,,,,,,,,,0,,,505,,v3.9,,,,,,-180,-87.6898,70,80,,,,,,,,,10,,,,,,,,,,,,,,,,,,,,,,,,,,,
h14v02,modisTile,,,mlw,,,,,,,,,,,0,,,506,,v3.9,,,,,,-116.9522,-59.9833,60,70,,,,,,,,,10,,,,,,,,,,,,,,,,,,,,,,,,,,,
h14v03,modisTile,,,mlw,,,,,,,,,,,0,,,507,,v3.9,,,,,,-80,-46.6588,50,60,,,,,,,,,10,,,,,,,,,,,,,,,,,,,,,,,,,,,
h14v04,modisTile,,,mlw,,,,,,,,,,,0,,,508,,v3.9,,,,,,-62.229,-39.1513,40,50,,,,,,,,,10,,,,,,,,,,,,,,,,,,,,,,,,,,,
h14v09,modisTile,,,mlw,,,,,,,,,,,0,,,513,,v3.9,,,,,,-40.6171,-29.9917,-10,0,,,,,,,,,4,,,,,,,,,,,,,,,,,,,,,,,,,,,
h14v10,modisTile,,,mlw,,,,,,,,,,,0,,,514,,v3.9,,,,,,-42.5671,-30.4543,-20,-10,,,,,,,,,4,,,,,,,,,,,,,,,,,,,,,,,,,,,
h14v11,modisTile,,,mlw,,,,,,,,,,,0,,,515,,v3.9,,,,,,-46.188,-31.9165,-30,-20,,,,,,,,,4,,,,,,,,,,,,,,,,,,,,,,,,,,,
h14v14,modisTile,,,mlw,,,,,,,,,,,0,,,518,,v3.9,,,,,,-80,-46.6588,-60,-50,,,,,,,,,4,,,,,,,,,,,,,,,,,,,,,,,,,,,
h15v01,modisTile,,,mlw,,,,,,,,,,,0,,,541,,v3.9,,,,,,-172.7631,-58.4517,70,80,,,,,,,,,10,,,,,,,,,,,,,,,,,,,,,,,,,,,
h15v02,modisTile,,,mlw,,,,,,,,,,,0,,,542,,v3.9,,,,,,-87.7141,-39.9833,60,70,,,,,,,,,10,,,,,,,,,,,,,,,,,,,,,,,,,,,
h15v03,modisTile,,,mlw,,,,,,,,,,,0,,,543,,v3.9,,,,,,-60,-31.1015,50,60,,,,,,,,,10,,,,,,,,,,,,,,,,,,,,,,,,,,,
h15v05,modisTile,,,mlw,,,,,,,,,,,0,,,545,,v3.9,,,,,,-39.1622,-23.0844,30,40,,,,,,,,,10,,,,,,,,,,,,,,,,,,,,,,,,,,,
h15v07,modisTile,,,mlw,,,,,,,,,,,0,,,547,,v3.9,,,,,,-31.9253,-20.3001,10,20,,,,,,,,,10,,,,,,,,,,,,,,,,,,,,,,,,,,,
h15v11,modisTile,,,mlw,,,,,,,,,,,0,,,551,,v3.9,,,,,,-34.641,-21.2747,-30,-20,,,,,,,,,4,,,,,,,,,,,,,,,,,,,,,,,,,,,
h15v14,modisTile,,,mlw,,,,,,,,,,,0,,,554,,v3.9,,,,,,-60,-31.1015,-60,-50,,,,,,,,,4,,,,,,,,,,,,,,,,,,,,,,,,,,,
h16v00,modisTile,,,mlw,,,,,,,,,,,0,,,576,,v3.9,,,,,,-180,-57.5397,80,86.8167,,,,,,,,,10,,,,,,,,,,,,,,,,,,,,,,,,,,,
h16v01,modisTile,,,mlw,,,,,,,,,,,0,,,577,,v3.9,,,,,,-115.1754,-29.2137,70,80,,,,,,,,,10,,,,,,,,,,,,,,,,,,,,,,,,,,,
h16v02,modisTile,,,mlw,,,,,,,,,,,0,,,578,,v3.9,,,,,,-58.4761,-19.9833,60,70,,,,,,,,,10,,,,,,,,,,,,,,,,,,,,,,,,,,,
h16v05,modisTile,,,mlw,,,,,,,,,,,0,,,581,,v3.9,,,,,,-26.1081,-11.5374,30,40,,,,,,,,,10,,,,,,,,,,,,,,,,,,,,,,,,,,,
h16v06,modisTile,,,mlw,,,,,,,,,,,0,,,582,,v3.9,,,,,,-23.094,-10.6329,20,30,,,,,,,,,10,,,,,,,,,,,,,,,,,,,,,,,,,,,
h16v07,modisTile,,,mlw,,,,,,,,,,,0,,,583,,v3.9,,,,,,-21.2836,-10.1458,10,20,,,,,,,,,10,,,,,,,,,,,,,,,,,,,,,,,,,,,
h16v08,modisTile,,,mlw,,,,,,,,,,,0,,,584,,v3.9,,,,,,-20.3085,-9.9917,0,10,,,,,,,,,10,,,,,,,,,,,,,,,,,,,,,,,,,,,
h16v09,modisTile,,,mlw,,,,,,,,,,,0,,,585,,v3.9,,,,,,-20.3085,-9.9917,-10,0,,,,,,,,,4,,,,,,,,,,,,,,,,,,,,,,,,,,,
h16v12,modisTile,,,mlw,,,,,,,,,,,0,,,588,,v3.9,,,,,,-26.1081,-11.5374,-40,-30,,,,,,,,,4,,,,,,,,,,,,,,,,,,,,,,,,,,,
h16v14,modisTile,,,mlw,,,,,,,,,,,0,,,590,,v3.9,,,,,,-40,-15.5443,-60,-50,,,,,,,,,4,,,,,,,,,,,,,,,,,,,,,,,,,,,
h17v00,modisTile,,,mlw,,,,,,,,,,,0,,,612,,v3.9,,,,,,-180,57.2957,80,90,,,,,,,,,10,,,,,,,,,,,,,,,,,,,,,,,,,,,
h17v01,modisTile,,,mlw,,,,,,,,,,,0,,,613,,v3.9,,,,,,-57.5877,0.048,70,80,,,,,,,,,10,,,,,,,,,,,,,,,,,,,,,,,,,,,
h17v02,modisTile,,,mlw,,,,,,,,,,,0,,,614,,v3.9,,,,,,-29.238,0.0244,60,70,,,,,,,,,10,,,,,,,,,,,,,,,,,,,,,,,,,,,
h17v03,modisTile,,,mlw,,,,,,,,,,,0,,,615,,v3.9,,,,,,-20,0.0167,50,60,,,,,,,,,10,,,,,,,,,,,,,,,,,,,,,,,,,,,
h17v04,modisTile,,,mlw,,,,,,,,,,,0,,,616,,v3.9,,,,,,-15.5572,0.013,40,50,,,,,,,,,10,,,,,,,,,,,,,,,,,,,,,,,,,,,
h17v05,modisTile,,,mlw,,,,,,,,,,,0,,,617,,v3.9,,,,,,-13.0541,0.0109,30,40,,,,,,,,,10,,,,,,,,,,,,,,,,,,,,,,,,,,,
h17v06,modisTile,,,mlw,,,,,,,,,,,0,,,618,,v3.9,,,,,,-11.547,0.0096,20,30,,,,,,,,,10,,,,,,,,,,,,,,,,,,,,,,,,,,,
h17v07,modisTile,,,mlw,,,,,,,,,,,0,,,619,,v3.9,,,,,,-10.6418,0.0089,10,20,,,,,,,,,10,,,,,,,,,,,,,,,,,,,,,,,,,,,
h17v08,modisTile,,,mlw,,,,,,,,,,,0,,,620,,v3.9,,,,,,-10.1543,0.0085,0,10,,,,,,,,,10,,,,,,,,,,,,,,,,,,,,,,,,,,,
h17v10,modisTile,,,mlw,,,,,,,,,,,0,,,622,,v3.9,,,,,,-10.6418,0.0089,-20,-10,,,,,,,,,4,,,,,,,,,,,,,,,,,,,,,,,,,,,
h17v12,modisTile,,,mlw,,,,,,,,,,,0,,,624,,v3.9,,,,,,-13.0541,0.0109,-40,-30,,,,,,,,,4,,,,,,,,,,,,,,,,,,,,,,,,,,,
h17v13,modisTile,,,mlw,,,,,,,,,,,0,,,625,,v3.9,,,,,,-15.5572,0.013,-50,-40,,,,,,,,,4,,,,,,,,,,,,,,,,,,,,,,,,,,,
h18v00,modisTile,,,mlw,,,,,,,,,,,0,,,648,,v3.9,,,,,,-0.004,180,80,90,,,,,,,,,10,,,,,,,,,,,,,,,,,,,,,,,,,,,
h18v01,modisTile,,,mlw,,,,,,,,,,,0,,,649,,v3.9,,,,,,0,57.6357,70,80,,,,,,,,,10,,,,,,,,,,,,,,,,,,,,,,,,,,,
h18v02,modisTile,,,mlw,,,,,,,,,,,0,,,650,,v3.9,,,,,,0,29.2624,60,70,,,,,,,,,10,,,,,,,,,,,,,,,,,,,,,,,,,,,
h18v03,modisTile,,,mlw,,,,,,,,,,,0,,,651,,v3.9,,,,,,0,20.0167,50,60,,,,,,,,,10,,,,,,,,,,,,,,,,,,,,,,,,,,,
h18v05,modisTile,,,mlw,,,,,,,,,,,0,,,653,,v3.9,,,,,,0,13.065,30,40,,,,,,,,,10,,,,,,,,,,,,,,,,,,,,,,,,,,,
h18v06,modisTile,,,mlw,,,,,,,,,,,0,,,654,,v3.9,,,,,,0,11.5566,20,30,,,,,,,,,10,,,,,,,,,,,,,,,,,,,,,,,,,,,
h18v07,modisTile,,,mlw,,,,,,,,,,,0,,,655,,v3.9,,,,,,0,10.6506,10,20,,,,,,,,,10,,,,,,,,,,,,,,,,,,,,,,,,,,,
h18v08,modisTile,,,mlw,,,,,,,,,,,0,,,656,,v3.9,,,,,,0,10.1627,0,10,,,,,,,,,10,,,,,,,,,,,,,,,,,,,,,,,,,,,
h18v09,modisTile,,,mlw,,,,,,,,,,,0,,,657,,v3.9,,,,,,0,10.1627,-10,0,,,,,,,,,4,,,,,,,,,,,,,,,,,,,,,,,,,,,
h19v00,modisTile,,,mlw,,,,,,,,,,,0,,,684,,v3.9,,,,,,57.5877,180,80,86.8167,,,,,,,,,10,,,,,,,,,,,,,,,,,,,,,,,,,,,
h19v01,modisTile,,,mlw,,,,,,,,,,,0,,,685,,v3.9,,,,,,29.238,115.2234,70,80,,,,,,,,,10,,,,,,,,,,,,,,,,,,,,,,,,,,,
h19v02,modisTile,,,mlw,,,,,,,,,,,0,,,686,,v3.9,,,,,,20,58.5005,60,70,,,,,,,,,10,,,,,,,,,,,,,,,,,,,,,,,,,,,
h19v03,modisTile,,,mlw,,,,,,,,,,,0,,,687,,v3.9,,,,,,15.5572,40.0167,50,60,,,,,,,,,10,,,,,,,,,,,,,,,,,,,,,,,,,,,
h19v05,modisTile,,,mlw,,,,,,,,,,,0,,,689,,v3.9,,,,,,11.547,26.119,30,40,,,,,,,,,10,,,,,,,,,,,,,,,,,,,,,,,,,,,
h19v06,modisTile,,,mlw,,,,,,,,,,,0,,,690,,v3.9,,,,,,10.6418,23.1036,20,30,,,,,,,,,10,,,,,,,,,,,,,,,,,,,,,,,,,,,
h19v07,modisTile,,,mlw,,,,,,,,,,,0,,,691,,v3.9,,,,,,10.1543,21.2924,10,20,,,,,,,,,10,,,,,,,,,,,,,,,,,,,,,,,,,,,
h19v08,modisTile,,,mlw,,,,,,,,,,,0,,,692,,v3.9,,,,,,10,20.317,0,10,,,,,,,,,10,,,,,,,,,,,,,,,,,,,,,,,,,,,
h19v09,modisTile,,,mlw,,,,,,,,,,,0,,,693,,v3.9,,,,,,10,20.317,-10,0,,,,,,,,,4,,,,,,,,,,,,,,,,,,,,,,,,,,,
h19v10,modisTile,,,mlw,,,,,,,,,,,0,,,694,,v3.9,,,,,,10.1543,21.2924,-20,-10,,,,,,,,,4,,,,,,,,,,,,,,,,,,,,,,,,,,,
h19v11,modisTile,,,mlw,,,,,,,,,,,0,,,695,,v3.9,,,,,,10.6418,23.1036,-30,-20,,,,,,,,,4,,,,,,,,,,,,,,,,,,,,,,,,,,,
h19v12,modisTile,,,mlw,,,,,,,,,,,0,,,696,,v3.9,,,,,,11.547,26.119,-40,-30,,,,,,,,,4,,,,,,,,,,,,,,,,,,,,,,,,,,,
h20v01,modisTile,,,mlw,,,,,,,,,,,0,,,721,,v3.9,,,,,,58.4761,172.8111,70,80,,,,,,,,,10,,,,,,,,,,,,,,,,,,,,,,,,,,,
h20v02,modisTile,,,mlw,,,,,,,,,,,0,,,722,,v3.9,,,,,,40,87.7385,60,70,,,,,,,,,10,,,,,,,,,,,,,,,,,,,,,,,,,,,
h20v03,modisTile,,,mlw,,,,,,,,,,,0,,,723,,v3.9,,,,,,31.1145,60.0167,50,60,,,,,,,,,10,,,,,,,,,,,,,,,,,,,,,,,,,,,
h20v04,modisTile,,,mlw,,,,,,,,,,,0,,,724,,v3.9,,,,,,26.1081,46.6847,40,50,,,,,,,,,10,,,,,,,,,,,,,,,,,,,,,,,,,,,
h20v05,modisTile,,,mlw,,,,,,,,,,,0,,,725,,v3.9,,,,,,23.094,39.1731,30,40,,,,,,,,,10,,,,,,,,,,,,,,,,,,,,,,,,,,,
h20v06,modisTile,,,mlw,,,,,,,,,,,0,,,726,,v3.9,,,,,,21.2836,34.6506,20,30,,,,,,,,,10,,,,,,,,,,,,,,,,,,,,,,,,,,,
h20v07,modisTile,,,mlw,,,,,,,,,,,0,,,727,,v3.9,,,,,,20.3085,31.9342,10,20,,,,,,,,,10,,,,,,,,,,,,,,,,,,,,,,,,,,,
h20v08,modisTile,,,mlw,,,,,,,,,,,0,,,728,,v3.9,,,,,,20,30.4713,0,10,,,,,,,,,10,,,,,,,,,,,,,,,,,,,,,,,,,,,
h20v09,modisTile,,,mlw,,,,,,,,,,,0,,,729,,v3.9,,,,,,20,30.4713,-10,0,,,,,,,,,4,,,,,,,,,,,,,,,,,,,,,,,,,,,
h20v10,modisTile,,,mlw,,,,,,,,,,,0,,,730,,v3.9,,,,,,20.3085,31.9342,-20,-10,,,,,,,,,4,,,,,,,,,,,,,,,,,,,,,,,,,,,
h20v11,modisTile,,,mlw,,,,,,,,,,,0,,,731,,v3.9,,,,,,21.2836,34.6506,-30,-20,,,,,,,,,4,,,,,,,,,,,,,,,,,,,,,,,,,,,
h20v12,modisTile,,,mlw,,,,,,,,,,,0,,,732,,v3.9,,,,,,23.094,39.1731,-40,-30,,,,,,,,,4,,,,,,,,,,,,,,,,,,,,,,,,,,,
h20v13,modisTile,,,mlw,,,,,,,,,,,0,,,733,,v3.9,,,,,,26.1081,46.6847,-50,-40,,,,,,,,,4,,,,,,,,,,,,,,,,,,,,,,,,,,,
h21v01,modisTile,,,mlw,,,,,,,,,,,0,,,757,,v3.9,,,,,,87.7141,180,70,80,,,,,,,,,10,,,,,,,,,,,,,,,,,,,,,,,,,,,
h21v02,modisTile,,,mlw,,,,,,,,,,,0,,,758,,v3.9,,,,,,60,116.9765,60,70,,,,,,,,,10,,,,,,,,,,,,,,,,,,,,,,,,,,,
h21v03,modisTile,,,mlw,,,,,,,,,,,0,,,759,,v3.9,,,,,,46.6717,80.0167,50,60,,,,,,,,,10,,,,,,,,,,,,,,,,,,,,,,,,,,,
h21v04,modisTile,,,mlw,,,,,,,,,,,0,,,760,,v3.9,,,,,,39.1622,62.2419,40,50,,,,,,,,,10,,,,,,,,,,,,,,,,,,,,,,,,,,,
h21v05,modisTile,,,mlw,,,,,,,,,,,0,,,761,,v3.9,,,,,,34.641,52.2272,30,40,,,,,,,,,10,,,,,,,,,,,,,,,,,,,,,,,,,,,
h21v06,modisTile,,,mlw,,,,,,,,,,,0,,,762,,v3.9,,,,,,31.9253,46.1976,20,30,,,,,,,,,10,,,,,,,,,,,,,,,,,,,,,,,,,,,
h21v07,modisTile,,,mlw,,,,,,,,,,,0,,,763,,v3.9,,,,,,30.4628,42.576,10,20,,,,,,,,,10,,,,,,,,,,,,,,,,,,,,,,,,,,,
h21v08,modisTile,,,mlw,,,,,,,,,,,0,,,764,,v3.9,,,,,,30,40.6255,0,10,,,,,,,,,10,,,,,,,,,,,,,,,,,,,,,,,,,,,
h21v09,modisTile,,,mlw,,,,,,,,,,,0,,,765,,v3.9,,,,,,30,40.6255,-10,0,,,,,,,,,4,,,,,,,,,,,,,,,,,,,,,,,,,,,
h21v10,modisTile,,,mlw,,,,,,,,,,,0,,,766,,v3.9,,,,,,30.4628,42.576,-20,-10,,,,,,,,,4,,,,,,,,,,,,,,,,,,,,,,,,,,,
h21v11,modisTile,,,mlw,,,,,,,,,,,0,,,767,,v3.9,,,,,,31.9253,46.1976,-30,-20,,,,,,,,,4,,,,,,,,,,,,,,,,,,,,,,,,,,,
h21v13,modisTile,,,mlw,,,,,,,,,,,0,,,769,,v3.9,,,,,,39.1622,62.2419,-50,-40,,,,,,,,,4,,,,,,,,,,,,,,,,,,,,,,,,,,,
h22v01,modisTile,,,mlw,,,,,,,,,,,0,,,793,,v3.9,,,,,,116.9522,180,70,77.1583,,,,,,,,,10,,,,,,,,,,,,,,,,,,,,,,,,,,,
h22v02,modisTile,,,mlw,,,,,,,,,,,0,,,794,,v3.9,,,,,,80,146.2146,60,70,,,,,,,,,10,,,,,,,,,,,,,,,,,,,,,,,,,,,
h22v03,modisTile,,,mlw,,,,,,,,,,,0,,,795,,v3.9,,,,,,62.229,100.0167,50,60,,,,,,,,,10,,,,,,,,,,,,,,,,,,,,,,,,,,,
h22v06,modisTile,,,mlw,,,,,,,,,,,0,,,798,,v3.9,,,,,,42.5671,57.7446,20,30,,,,,,,,,10,,,,,,,,,,,,,,,,,,,,,,,,,,,
h22v07,modisTile,,,mlw,,,,,,,,,,,0,,,799,,v3.9,,,,,,40.6171,53.2178,10,20,,,,,,,,,10,,,,,,,,,,,,,,,,,,,,,,,,,,,
h22v08,modisTile,,,mlw,,,,,,,,,,,0,,,800,,v3.9,,,,,,40,50.7798,0,10,,,,,,,,,10,,,,,,,,,,,,,,,,,,,,,,,,,,,
h22v09,modisTile,,,mlw,,,,,,,,,,,0,,,801,,v3.9,,,,,,40,50.7798,-10,0,,,,,,,,,4,,,,,,,,,,,,,,,,,,,,,,,,,,,
h22v10,modisTile,,,mlw,,,,,,,,,,,0,,,802,,v3.9,,,,,,40.6171,53.2178,-20,-10,,,,,,,,,4,,,,,,,,,,,,,,,,,,,,,,,,,,,
h22v11,modisTile,,,mlw,,,,,,,,,,,0,,,803,,v3.9,,,,,,42.5671,57.7446,-30,-20,,,,,,,,,4,,,,,,,,,,,,,,,,,,,,,,,,,,,
h22v13,modisTile,,,mlw,,,,,,,,,,,0,,,805,,v3.9,,,,,,52.2163,77.7992,-50,-40,,,,,,,,,4,,,,,,,,,,,,,,,,,,,,,,,,,,,
h22v14,modisTile,,,mlw,,,,,,,,,,,0,,,806,,v3.9,,,,,,62.229,100.0167,-60,-50,,,,,,,,,4,,,,,,,,,,,,,,,,,,,,,,,,,,,
h23v01,modisTile,,,mlw,,,,,,,,,,,0,,,829,,v3.9,,,,,,146.1902,180,70,73.875,,,,,,,,,10,,,,,,,,,,,,,,,,,,,,,,,,,,,
h23v02,modisTile,,,mlw,,,,,,,,,,,0,,,830,,v3.9,,,,,,100,175.4526,60,70,,,,,,,,,10,,,,,,,,,,,,,,,,,,,,,,,,,,,
h23v03,modisTile,,,mlw,,,,,,,,,,,0,,,831,,v3.9,,,,,,77.7862,120.0167,50,60,,,,,,,,,10,,,,,,,,,,,,,,,,,,,,,,,,,,,
h23v07,modisTile,,,mlw,,,,,,,,,,,0,,,835,,v3.9,,,,,,50.7713,63.8595,10,20,,,,,,,,,10,,,,,,,,,,,,,,,,,,,,,,,,,,,
h23v08,modisTile,,,mlw,,,,,,,,,,,0,,,836,,v3.9,,,,,,50,60.9341,0,10,,,,,,,,,10,,,,,,,,,,,,,,,,,,,,,,,,,,,
h23v09,modisTile,,,mlw,,,,,,,,,,,0,,,837,,v3.9,,,,,,50,60.9341,-10,0,,,,,,,,,4,,,,,,,,,,,,,,,,,,,,,,,,,,,
h23v10,modisTile,,,mlw,,,,,,,,,,,0,,,838,,v3.9,,,,,,50.7713,63.8595,-20,-10,,,,,,,,,4,,,,,,,,,,,,,,,,,,,,,,,,,,,
h23v11,modisTile,,,mlw,,,,,,,,,,,0,,,839,,v3.9,,,,,,53.2089,69.2917,-30,-20,,,,,,,,,4,,,,,,,,,,,,,,,,,,,,,,,,,,,
h24v01,modisTile,,,mlw,,,,,,,,,,,0,,,865,,v3.9,,,,,,175.4283,180,70,70.5333,,,,,,,,,10,,,,,,,,,,,,,,,,,,,,,,,,,,,
h24v02,modisTile,,,mlw,,,,,,,,,,,0,,,866,,v3.9,,,,,,120,180,60,70,,,,,,,,,10,,,,,,,,,,,,,,,,,,,,,,,,,,,
h24v03,modisTile,,,mlw,,,,,,,,,,,0,,,867,,v3.9,,,,,,93.3434,140.0167,50,60,,,,,,,,,10,,,,,,,,,,,,,,,,,,,,,,,,,,,
h24v07,modisTile,,,mlw,,,,,,,,,,,0,,,871,,v3.9,,,,,,60.9256,74.5013,10,20,,,,,,,,,10,,,,,,,,,,,,,,,,,,,,,,,,,,,
h24v12,modisTile,,,mlw,,,,,,,,,,,0,,,876,,v3.9,,,,,,69.282,91.3894,-40,-30,,,,,,,,,4,,,,,,,,,,,,,,,,,,,,,,,,,,,
h25v02,modisTile,,,mlw,,,,,,,,,,,0,,,902,,v3.9,,,,,,140,180,60,67.1167,,,,,,,,,10,,,,,,,,,,,,,,,,,,,,,,,,,,,
h25v03,modisTile,,,mlw,,,,,,,,,,,0,,,903,,v3.9,,,,,,108.9007,160.0167,50,60,,,,,,,,,10,,,,,,,,,,,,,,,,,,,,,,,,,,,
h25v04,modisTile,,,mlw,,,,,,,,,,,0,,,904,,v3.9,,,,,,91.3785,124.4709,40,50,,,,,,,,,10,,,,,,,,,,,,,,,,,,,,,,,,,,,
h25v07,modisTile,,,mlw,,,,,,,,,,,0,,,907,,v3.9,,,,,,71.0799,85.1431,10,20,,,,,,,,,10,,,,,,,,,,,,,,,,,,,,,,,,,,,
h25v08,modisTile,,,mlw,,,,,,,,,,,0,,,908,,v3.9,,,,,,70,81.2426,0,10,,,,,,,,,10,,,,,,,,,,,,,,,,,,,,,,,,,,,
h25v09,modisTile,,,mlw,,,,,,,,,,,0,,,909,,v3.9,,,,,,70,81.2426,-10,0,,,,,,,,,4,,,,,,,,,,,,,,,,,,,,,,,,,,,
h26v02,modisTile,,,mlw,,,,,,,,,,,0,,,938,,v3.9,,,,,,160,180,60,63.6167,,,,,,,,,10,,,,,,,,,,,,,,,,,,,,,,,,,,,
h26v03,modisTile,,,mlw,,,,,,,,,,,0,,,939,,v3.9,,,,,,124.4579,180,50,60,,,,,,,,,10,,,,,,,,,,,,,,,,,,,,,,,,,,,
h26v04,modisTile,,,mlw,,,,,,,,,,,0,,,940,,v3.9,,,,,,104.4326,140.0281,40,50,,,,,,,,,10,,,,,,,,,,,,,,,,,,,,,,,,,,,
h26v07,modisTile,,,mlw,,,,,,,,,,,0,,,943,,v3.9,,,,,,81.2341,95.7849,10,20,,,,,,,,,10,,,,,,,,,,,,,,,,,,,,,,,,,,,
h26v08,modisTile,,,mlw,,,,,,,,,,,0,,,944,,v3.9,,,,,,80,91.3969,0,10,,,,,,,,,10,,,,,,,,,,,,,,,,,,,,,,,,,,,
h27v03,modisTile,,,mlw,,,,,,,,,,,0,,,975,,v3.9,,,,,,140.0151,180,50,60,,,,,,,,,10,,,,,,,,,,,,,,,,,,,,,,,,,,,
h27v04,modisTile,,,mlw,,,,,,,,,,,0,,,976,,v3.9,,,,,,117.4867,155.5853,40,50,,,,,,,,,10,,,,,,,,,,,,,,,,,,,,,,,,,,,
h27v05,modisTile,,,mlw,,,,,,,,,,,0,,,977,,v3.9,,,,,,103.923,130.5516,30,40,,,,,,,,,10,,,,,,,,,,,,,,,,,,,,,,,,,,,
h27v06,modisTile,,,mlw,,,,,,,,,,,0,,,978,,v3.9,,,,,,95.776,115.4797,20,30,,,,,,,,,10,,,,,,,,,,,,,,,,,,,,,,,,,,,
h27v07,modisTile,,,mlw,,,,,,,,,,,0,,,979,,v3.9,,,,,,91.3884,106.4266,10,20,,,,,,,,,10,,,,,,,,,,,,,,,,,,,,,,,,,,,
h27v08,modisTile,,,mlw,,,,,,,,,,,0,,,980,,v3.9,,,,,,90,101.5511,0,10,,,,,,,,,10,,,,,,,,,,,,,,,,,,,,,,,,,,,
h27v09,modisTile,,,mlw,,,,,,,,,,,0,,,981,,v3.9,,,,,,90,101.5511,-10,0,,,,,,,,,4,,,,,,,,,,,,,,,,,,,,,,,,,,,
h27v10,modisTile,,,mlw,,,,,,,,,,,0,,,982,,v3.9,,,,,,91.3884,106.4266,-20,-10,,,,,,,,,4,,,,,,,,,,,,,,,,,,,,,,,,,,,
h27v11,modisTile,,,mlw,,,,,,,,,,,0,,,983,,v3.9,,,,,,95.776,115.4797,-30,-20,,,,,,,,,4,,,,,,,,,,,,,,,,,,,,,,,,,,,
h27v12,modisTile,,,mlw,,,,,,,,,,,0,,,984,,v3.9,,,,,,103.923,130.5516,-40,-30,,,,,,,,,4,,,,,,,,,,,,,,,,,,,,,,,,,,,
h27v14,modisTile,,,mlw,,,,,,,,,,,0,,,986,,v3.9,,,,,,140.0151,180,-60,-50,,,,,,,,,4,,,,,,,,,,,,,,,,,,,,,,,,,,,
h28v03,modisTile,,,mlw,,,,,,,,,,,0,,,1011,,v3.9,,,,,,155.5724,180,50,56.25,,,,,,,,,10,,,,,,,,,,,,,,,,,,,,,,,,,,,
h28v04,modisTile,,,mlw,,,,,,,,,,,0,,,1012,,v3.9,,,,,,130.5407,171.1426,40,50,,,,,,,,,10,,,,,,,,,,,,,,,,,,,,,,,,,,,
h28v05,modisTile,,,mlw,,,,,,,,,,,0,,,1013,,v3.9,,,,,,115.4701,143.6057,30,40,,,,,,,,,10,,,,,,,,,,,,,,,,,,,,,,,,,,,
h28v06,modisTile,,,mlw,,,,,,,,,,,0,,,1014,,v3.9,,,,,,106.4178,127.0267,20,30,,,,,,,,,10,,,,,,,,,,,,,,,,,,,,,,,,,,,
h28v07,modisTile,,,mlw,,,,,,,,,,,0,,,1015,,v3.9,,,,,,101.5427,117.0684,10,20,,,,,,,,,10,,,,,,,,,,,,,,,,,,,,,,,,,,,
h28v08,modisTile,,,mlw,,,,,,,,,,,0,,,1016,,v3.9,,,,,,100,111.7054,0,10,,,,,,,,,10,,,,,,,,,,,,,,,,,,,,,,,,,,,
h28v09,modisTile,,,mlw,,,,,,,,,,,0,,,1017,,v3.9,,,,,,100,111.7054,-10,0,,,,,,,,,4,,,,,,,,,,,,,,,,,,,,,,,,,,,
h28v10,modisTile,,,mlw,,,,,,,,,,,0,,,1018,,v3.9,,,,,,101.5427,117.0684,-20,-10,,,,,,,,,4,,,,,,,,,,,,,,,,,,,,,,,,,,,
h28v11,modisTile,,,mlw,,,,,,,,,,,0,,,1019,,v3.9,,,,,,106.4178,127.0267,-30,-20,,,,,,,,,4,,,,,,,,,,,,,,,,,,,,,,,,,,,
h28v12,modisTile,,,mlw,,,,,,,,,,,0,,,1020,,v3.9,,,,,,115.4701,143.6057,-40,-30,,,,,,,,,4,,,,,,,,,,,,,,,,,,,,,,,,,,,
h28v13,modisTile,,,mlw,,,,,,,,,,,0,,,1021,,v3.9,,,,,,130.5407,171.1426,-50,-40,,,,,,,,,4,,,,,,,,,,,,,,,,,,,,,,,,,,,
h28v14,modisTile,,,mlw,,,,,,,,,,,0,,,1022,,v3.9,,,,,,155.5724,180,-56.25,-50,,,,,,,,,4,,,,,,,,,,,,,,,,,,,,,,,,,,,
h29v03,modisTile,,,mlw,,,,,,,,,,,0,,,1047,,v3.9,,,,,,171.1296,180,50,52.3333,,,,,,,,,10,,,,,,,,,,,,,,,,,,,,,,,,,,,
h29v05,modisTile,,,mlw,,,,,,,,,,,0,,,1049,,v3.9,,,,,,127.0171,156.6598,30,40,,,,,,,,,10,,,,,,,,,,,,,,,,,,,,,,,,,,,
h29v06,modisTile,,,mlw,,,,,,,,,,,0,,,1050,,v3.9,,,,,,117.0596,138.5737,20,30,,,,,,,,,10,,,,,,,,,,,,,,,,,,,,,,,,,,,
h29v07,modisTile,,,mlw,,,,,,,,,,,0,,,1051,,v3.9,,,,,,111.6969,127.7102,10,20,,,,,,,,,10,,,,,,,,,,,,,,,,,,,,,,,,,,,
h29v08,modisTile,,,mlw,,,,,,,,,,,0,,,1052,,v3.9,,,,,,110,121.8597,0,10,,,,,,,,,10,,,,,,,,,,,,,,,,,,,,,,,,,,,
h29v09,modisTile,,,mlw,,,,,,,,,,,0,,,1053,,v3.9,,,,,,110,121.8597,-10,0,,,,,,,,,4,,,,,,,,,,,,,,,,,,,,,,,,,,,
h29v10,modisTile,,,mlw,,,,,,,,,,,0,,,1054,,v3.9,,,,,,111.6969,127.7102,-20,-10,,,,,,,,,4,,,,,,,,,,,,,,,,,,,,,,,,,,,
h29v11,modisTile,,,mlw,,,,,,,,,,,0,,,1055,,v3.9,,,,,,117.0596,138.5737,-30,-20,,,,,,,,,4,,,,,,,,,,,,,,,,,,,,,,,,,,,
h29v12,modisTile,,,mlw,,,,,,,,,,,0,,,1056,,v3.9,,,,,,127.0171,156.6598,-40,-30,,,,,,,,,4,,,,,,,,,,,,,,,,,,,,,,,,,,,
h29v13,modisTile,,,mlw,,,,,,,,,,,0,,,1057,,v3.9,,,,,,143.5948,180,-50,-40,,,,,,,,,4,,,,,,,,,,,,,,,,,,,,,,,,,,,
h30v05,modisTile,,,mlw,,,,,,,,,,,0,,,1085,,v3.9,,,,,,138.5641,169.7138,30,40,,,,,,,,,10,,,,,,,,,,,,,,,,,,,,,,,,,,,
h30v06,modisTile,,,mlw,,,,,,,,,,,0,,,1086,,v3.9,,,,,,127.7013,150.1207,20,30,,,,,,,,,10,,,,,,,,,,,,,,,,,,,,,,,,,,,
h30v07,modisTile,,,mlw,,,,,,,,,,,0,,,1087,,v3.9,,,,,,121.8512,138.352,10,20,,,,,,,,,10,,,,,,,,,,,,,,,,,,,,,,,,,,,
h30v08,modisTile,,,mlw,,,,,,,,,,,0,,,1088,,v3.9,,,,,,120,132.0139,0,10,,,,,,,,,10,,,,,,,,,,,,,,,,,,,,,,,,,,,
h30v09,modisTile,,,mlw,,,,,,,,,,,0,,,1089,,v3.9,,,,,,120,132.0139,-10,0,,,,,,,,,4,,,,,,,,,,,,,,,,,,,,,,,,,,,
h30v10,modisTile,,,mlw,,,,,,,,,,,0,,,1090,,v3.9,,,,,,121.8512,138.352,-20,-10,,,,,,,,,4,,,,,,,,,,,,,,,,,,,,,,,,,,,
h30v11,modisTile,,,mlw,,,,,,,,,,,0,,,1091,,v3.9,,,,,,127.7013,150.1207,-30,-20,,,,,,,,,4,,,,,,,,,,,,,,,,,,,,,,,,,,,
h30v12,modisTile,,,mlw,,,,,,,,,,,0,,,1092,,v3.9,,,,,,138.5641,169.7138,-40,-30,,,,,,,,,4,,,,,,,,,,,,,,,,,,,,,,,,,,,
h30v13,modisTile,,,mlw,,,,,,,,,,,0,,,1093,,v3.9,,,,,,156.6489,180,-48.1917,-40,,,,,,,,,4,,,,,,,,,,,,,,,,,,,,,,,,,,,
h31v06,modisTile,,,mlw,,,,,,,,,,,0,,,1122,,v3.9,,,,,,138.3431,161.6677,20,30,,,,,,,,,10,,,,,,,,,,,,,,,,,,,,,,,,,,,
h31v07,modisTile,,,mlw,,,,,,,,,,,0,,,1123,,v3.9,,,,,,132.0055,148.9938,10,20,,,,,,,,,10,,,,,,,,,,,,,,,,,,,,,,,,,,,
h31v08,modisTile,,,mlw,,,,,,,,,,,0,,,1124,,v3.9,,,,,,130,142.1682,0,10,,,,,,,,,10,,,,,,,,,,,,,,,,,,,,,,,,,,,
h31v09,modisTile,,,mlw,,,,,,,,,,,0,,,1125,,v3.9,,,,,,130,142.1682,-10,0,,,,,,,,,4,,,,,,,,,,,,,,,,,,,,,,,,,,,
h31v10,modisTile,,,mlw,,,,,,,,,,,0,,,1126,,v3.9,,,,,,132.0055,148.9938,-20,-10,,,,,,,,,4,,,,,,,,,,,,,,,,,,,,,,,,,,,
h31v11,modisTile,,,mlw,,,,,,,,,,,0,,,1127,,v3.9,,,,,,138.3431,161.6677,-30,-20,,,,,,,,,4,,,,,,,,,,,,,,,,,,,,,,,,,,,
h31v12,modisTile,,,mlw,,,,,,,,,,,0,,,1128,,v3.9,,,,,,150.1111,180,-40,-30,,,,,,,,,4,,,,,,,,,,,,,,,,,,,,,,,,,,,
h31v13,modisTile,,,mlw,,,,,,,,,,,0,,,1129,,v3.9,,,,,,169.7029,180,-43.7583,-40,,,,,,,,,4,,,,,,,,,,,,,,,,,,,,,,,,,,,
h32v07,modisTile,,,mlw,,,,,,,,,,,0,,,1159,,v3.9,,,,,,142.1597,159.6355,10,20,,,,,,,,,10,,,,,,,,,,,,,,,,,,,,,,,,,,,
h32v08,modisTile,,,mlw,,,,,,,,,,,0,,,1160,,v3.9,,,,,,140,152.3225,0,10,,,,,,,,,10,,,,,,,,,,,,,,,,,,,,,,,,,,,
h32v09,modisTile,,,mlw,,,,,,,,,,,0,,,1161,,v3.9,,,,,,140,152.3225,-10,0,,,,,,,,,4,,,,,,,,,,,,,,,,,,,,,,,,,,,
h32v10,modisTile,,,mlw,,,,,,,,,,,0,,,1162,,v3.9,,,,,,142.1597,159.6355,-20,-10,,,,,,,,,4,,,,,,,,,,,,,,,,,,,,,,,,,,,
h32v11,modisTile,,,mlw,,,,,,,,,,,0,,,1163,,v3.9,,,,,,148.9849,173.2147,-30,-20,,,,,,,,,4,,,,,,,,,,,,,,,,,,,,,,,,,,,
h32v12,modisTile,,,mlw,,,,,,,,,,,0,,,1164,,v3.9,,,,,,161.6581,180,-38.9417,-30,,,,,,,,,4,,,,,,,,,,,,,,,,,,,,,,,,,,,
h33v08,modisTile,,,mlw,,,,,,,,,,,0,,,1196,,v3.9,,,,,,150,162.4767,0,10,,,,,,,,,10,,,,,,,,,,,,,,,,,,,,,,,,,,,
h33v09,modisTile,,,mlw,,,,,,,,,,,0,,,1197,,v3.9,,,,,,150,162.4767,-10,0,,,,,,,,,4,,,,,,,,,,,,,,,,,,,,,,,,,,,
h33v10,modisTile,,,mlw,,,,,,,,,,,0,,,1198,,v3.9,,,,,,152.314,170.2773,-20,-10,,,,,,,,,4,,,,,,,,,,,,,,,,,,,,,,,,,,,
h33v11,modisTile,,,mlw,,,,,,,,,,,0,,,1199,,v3.9,,,,,,159.6267,180,-30,-20,,,,,,,,,4,,,,,,,,,,,,,,,,,,,,,,,,,,,
h34v07,modisTile,,,mlw,,,,,,,,,,,0,,,1231,,v3.9,,,,,,162.4683,180,10,20,,,,,,,,,10,,,,,,,,,,,,,,,,,,,,,,,,,,,
h34v08,modisTile,,,mlw,,,,,,,,,,,0,,,1232,,v3.9,,,,,,160,172.631,0,10,,,,,,,,,10,,,,,,,,,,,,,,,,,,,,,,,,,,,
h34v09,modisTile,,,mlw,,,,,,,,,,,0,,,1233,,v3.9,,,,,,160,172.631,-10,0,,,,,,,,,4,,,,,,,,,,,,,,,,,,,,,,,,,,,
h34v10,modisTile,,,mlw,,,,,,,,,,,0,,,1234,,v3.9,,,,,,162.4683,180,-20,-10,,,,,,,,,4,,,,,,,,,,,,,,,,,,,,,,,,,,,
h35v08,modisTile,,,mlw,,,,,,,,,,,0,,,1268,,v3.9,,,,,,170,180,0,10,,,,,,,,,10,,,,,,,,,,,,,,,,,,,,,,,,,,,
h35v09,modisTile,,,mlw,,,,,,,,,,,0,,,1269,,v3.9,,,,,,170,180,-10,0,,,,,,,,,4,,,,,,,,,,,,,,,,,,,,,,,,,,,
h35v10,modisTile,,,mlw,,,,,,,,,,,0,,,1270,,v3.9,,,,,,172.6225,180,-19.1833,-10,,,,,,,,,4,,,,,,,,,,,,,,,,,,,,,,,,,,,
,,,,,,,,,,,,,,,,,,,,,,,,,,,,,,,,,,,,,,,,,,,,,,,,,,,,,,,,,,,,,,,,,
"NB: the ids of the tiles were obtained using this code:

source scripts/toolsRegions.sh theseTiles=(h00v08 h00v09 h00v10 h01v07 h01v08 h01v09 h01v10 h01v11 h02v06 h02v08 h02v09 h02v10 h02v11 h03v06 h03v07 h03v09 h03v10 h03v11 h04v09 h04v10 h04v11 h05v10 h05v11 h05v13 h06v03 h06v11 h07v05 h07v06 h07v07 h08v06 h08v07 h08v08 h08v09 h08v11 h09v06 h09v07 h09v08 h09v09 h10v05 h10v06 h10v07 h10v08 h10v11 h11v01 h11v04 h11v05 h11v06 h11v07 h11v08 h11v09 h12v03 h12v04 h12v05 h12v07 h12v08 h12v09 h12v10 h12v11 h13v03 h13v04 h13v08 h13v09 h13v10 h13v11 h13v12 h14v01 h14v02 h14v03 h14v04 h14v09 h14v10 h14v11 h14v14 h15v01 h15v02 h15v03 h15v05 h15v07 h15v11 h15v14 h16v00 h16v01 h16v02 h16v05 h16v06 h16v07 h16v08 h16v09 h16v12 h16v14 h17v00 h17v01 h17v02 h17v03 h17v04 h17v05 h17v06 h17v07 h17v08 h17v10 h17v12 h17v13 h18v00 h18v01 h18v02 h18v03 h18v05 h18v06 h18v07 h18v08 h18v09 h19v00 h19v01 h19v02 h19v03 h19v05 h19v06 h19v07 h19v08 h19v09 h19v10 h19v11 h19v12 h20v01 h20v02 h20v03 h20v04 h20v05 h20v06 h20v07 h20v08 h20v09 h20v10 h20v11 h20v12 h20v13 h21v01 h21v02 h21v03 h21v04 h21v05 h21v06 h21v07 h21v08 h21v09 h21v10 h21v11 h21v13 h22v01 h22v02 h22v03 h22v06 h22v07 h22v08 h22v09 h22v10 h22v11 h22v13 h22v14 h23v01 h23v02 h23v03 h23v07 h23v08 h23v09 h23v10 h23v11 h24v01 h24v02 h24v03 h24v07 h24v12 h25v02 h25v03 h25v04 h25v07 h25v08 h25v09 h26v02 h26v03 h26v04 h26v07 h26v08 h27v03 h27v04 h27v05 h27v06 h27v07 h27v08 h27v09 h27v10 h27v11 h27v12 h27v14 h28v03 h28v04 h28v05 h28v06 h28v07 h28v08 h28v09 h28v10 h28v11 h28v12 h28v13 h28v14 h29v03 h29v05 h29v06 h29v07 h29v08 h29v09 h29v10 h29v11 h29v12 h29v13 h30v05 h30v06 h30v07 h30v08 h30v09 h30v10 h30v11 h30v12 h30v13 h31v06 h31v07 h31v08 h31v09 h31v10 h31v11 h31v12 h31v13 h32v07 h32v08 h32v09 h32v10 h32v11 h32v12 h33v08 h33v09 h33v10 h33v11 h34v07 h34v08 h34v09 h34v10 h35v08 h35v09 h35v10) theseIds=() for tileIdx in $(eval echo {0..$[${#theseTiles[@]} - 1]..1}); do theseIds+=($(get_tile_id_from_tile_name ${theseTiles[tileIdx]})); done; echo $theseIds",,,,,,,,,,,,,,,,,,,,,,,,,,,,,,,,,,,,,,,,,,,,,,,,,,,,,,,,,,,,,,,,,
